[{"OBJECT_NAME":"STARLINK-30348","OBJECT_ID":"2023-129Q","EPOCH":"2026-03-09T22:00:01.999584","MEAN_MOTION":15.2675795,"ECCENTRICITY":0.00010887,"INCLINATION":42.9998,"RA_OF_ASC_NODE":116.6895,"ARG_OF_PERICENTER":259.395,"MEAN_ANOMALY":202.79,"EPHEMERIS_TYPE":0,"CLASSIFICATION_TYPE":"U","NORAD_CAT_ID":57712,"ELEMENT_SET_NO":999,"REV_AT_EPOCH":578,"BSTAR":0.00023589555,"MEAN_MOTION_DOT":6.076e-5,"MEAN_MOTION_DDOT":0},{"OBJECT_NAME":"OV1-9","OBJECT_ID":"1966-111A","EPOCH":"2026-03-09T00:15:54.647424","MEAN_MOTION":10.39800663,"ECCENTRICITY":0.22726318,"INCLINATION":99.101,"RA_OF_ASC_NODE":280.6949,"ARG_OF_PERICENTER":170.5316,"MEAN_ANOMALY":194.7407,"EPHEMERIS_TYPE":0,"CLASSIFICATION_TYPE":"U","NORAD_CAT_ID":2610,"ELEMENT_SET_NO":999,"REV_AT_EPOCH":22262,"BSTAR":0.0003053363,"MEAN_MOTION_DOT":7.59e-6,"MEAN_MOTION_DDOT":0}]
